0 THORAD AGENA D DEB
1 04547U 69082GN  13282.34976741  .00000652  00000-0  29260-3 0   415
2 04547 069.9916 229.7259 0035204 089.3850 072.2867 14.26429372270141
0 THORAD AGENA D DEB
1 04547U 69082GN  13286.97093243  .00000706  00000-0  31470-3 0   433
2 04547 069.9920 219.3327 0035388 082.5806 043.1540 14.26435052270806
0 THORAD AGENA D DEB
1 04547U 69082GN  13289.00461869  .00000785  00000-0  34753-3 0   448
2 04547 069.9921 214.7591 0035471 079.6139 046.6653 14.26440831271094
0 THORAD AGENA D DEB
1 04547U 69082GN  13291.17592497  .00000880  00000-0  38634-3 0   450
2 04547 069.9918 209.8762 0035562 076.4280 036.9573 14.26443843271402
0 THORAD AGENA D DEB
1 04547U 69082GN  13293.21709576  .00000985  00000-0  42974-3 0   464
2 04547 069.9915 205.2860 0035680 073.4526 078.9677 14.26447693271698
0 THORAD AGENA D DEB
1 04547U 69082GN  13295.86589388  .00000824  00000-0  36327-3 0   472
2 04547 069.9914 199.3287 0035828 069.6010 001.3520 14.26454627272077
